start=new Date('2022-04-02T00:00:00.000Z').valueOf();
sats=[{"TLE_LINE2":"2 47789  53.0550 207.3489 0001648  57.5887 302.5261 15.06418917 60138","LAUNCH_DATE":"2021-03-11","TLE_LINE1":"1 47789U 21018C   22091.62603743  .00006587  00000-0  46044-3 0  9999","MEAN_MOTION":"15.06418917","CENTER_NAME":"EARTH","TIME_SYSTEM":"UTC","CLASSIFICATION_TYPE":"U","MEAN_ANOMALY":"302.5261","SEMIMAJOR_AXIS":"6925.291","COUNTRY_CODE":"US","BSTAR":"0.00046044000000","MEAN_ELEMENT_THEORY":"SGP4","INCLINATION":"53.0550","PERIOD":"95.591","OBJECT_TYPE":"PAYLOAD","FILE":"3383778","NORAD_CAT_ID":"47789","OBJECT_ID":"2021-018C","RCS_SIZE":"LARGE","ELEMENT_SET_NO":"999","DECAY_DATE":null,"REF_FRAME":"TEME","APOAPSIS":"548.297","MEAN_MOTION_DDOT":"0.0000000000000","SITE":"AFETR","OBJECT_NAME":"STARLINK-2315","GP_ID":"200263934","MEAN_MOTION_DOT":"0.00006587","PERIAPSIS":"546.014","EPOCH":"2022-04-01T15:01:29.633952","RA_OF_ASC_NODE":"207.3489","REV_AT_EPOCH":"6013","ECCENTRICITY":"0.00016480","EPHEMERIS_TYPE":"0","ARG_OF_PERICENTER":"57.5887"},{"MEAN_ELEMENT_THEORY":"SGP4","COUNTRY_CODE":"US","BSTAR":"0.00068654000000","INCLINATION":"53.0546","FILE":"3383778","OBJECT_TYPE":"PAYLOAD","PERIOD":"95.591","OBJECT_ID":"2021-018D","NORAD_CAT_ID":"47790","TLE_LINE2":"2 47790  53.0546 197.4591 0001494  68.9086 291.2063 15.06420728 60276","TIME_SYSTEM":"UTC","MEAN_MOTION":"15.06420728","CENTER_NAME":"EARTH","TLE_LINE1":"1 47790U 21018D   22091.60116116  .00009965  00000-0  68654-3 0  9996","LAUNCH_DATE":"2021-03-11","MEAN_ANOMALY":"291.2063","CLASSIFICATION_TYPE":"U","SEMIMAJOR_AXIS":"6925.285","SITE":"AFETR","MEAN_MOTION_DDOT":"0.0000000000000","GP_ID":"200262690","OBJECT_NAME":"STARLINK-2319","PERIAPSIS":"546.115","MEAN_MOTION_DOT":"0.00009965","ARG_OF_PERICENTER":"68.9086","EPHEMERIS_TYPE":"0","ECCENTRICITY":"0.00014940","REV_AT_EPOCH":"6027","RA_OF_ASC_NODE":"197.4591","EPOCH":"2022-04-01T14:25:40.324224","DECAY_DATE":null,"ELEMENT_SET_NO":"999","RCS_SIZE":"LARGE","REF_FRAME":"TEME","APOAPSIS":"548.185"},{"MEAN_MOTION_DDOT":"0.0000000000000","SITE":"AFETR","OBJECT_NAME":"STARLINK-2322","GP_ID":"200263440","PERIAPSIS":"546.173","MEAN_MOTION_DOT":"0.00004250","REV_AT_EPOCH":"5987","EPOCH":"2022-04-01T18:04:36.465312","RA_OF_ASC_NODE":"226.7709","ARG_OF_PERICENTER":"61.2107","EPHEMERIS_TYPE":"0","ECCENTRICITY":"0.00014380","ELEMENT_SET_NO":"999","RCS_SIZE":"LARGE","DECAY_DATE":null,"REF_FRAME":"TEME","APOAPSIS":"548.164","BSTAR":"0.00030391000000","COUNTRY_CODE":"US","MEAN_ELEMENT_THEORY":"SGP4","INCLINATION":"53.0525","PERIOD":"95.591","FILE":"3383778","OBJECT_TYPE":"PAYLOAD","OBJECT_ID":"2021-018E","NORAD_CAT_ID":"47791","TLE_LINE2":"2 47791  53.0525 226.7709 0001438  61.2107 298.9026 15.06414706 59875","TLE_LINE1":"1 47791U 21018E   22091.75319983  .00004250  00000-0  30391-3 0  9999","LAUNCH_DATE":"2021-03-11","TIME_SYSTEM":"UTC","MEAN_MOTION":"15.06414706","CENTER_NAME":"EARTH","CLASSIFICATION_TYPE":"U","MEAN_ANOMALY":"298.9026","SEMIMAJOR_AXIS":"6925.303"},{"DECAY_DATE":null,"ELEMENT_SET_NO":"999","RCS_SIZE":"LARGE","APOAPSIS":"548.511","REF_FRAME":"TEME","OBJECT_NAME":"STARLINK-2334","GP_ID":"200263692","SITE":"AFETR","MEAN_MOTION_DDOT":"0.0000000000000","ARG_OF_PERICENTER":"55.0743","ECCENTRICITY":"0.00019290","EPHEMERIS_TYPE":"0","REV_AT_EPOCH":"6014","RA_OF_ASC_NODE":"207.0102","EPOCH":"2022-04-01T16:47:38.721408","MEAN_MOTION_DOT":"0.00005478","PERIAPSIS":"545.839","TIME_SYSTEM":"UTC","MEAN_MOTION":"15.06412658","CENTER_NAME":"EARTH","TLE_LINE1":"1 47792U 21018F   22091.69975372  .00005478  00000-0  38627-3 0  9996","LAUNCH_DATE":"2021-03-11","TLE_LINE2":"2 47792  53.0550 207.0102 0001929  55.0743 305.0427 15.06412658 60146","SEMIMAJOR_AXIS":"6925.310","MEAN_ANOMALY":"305.0427","CLASSIFICATION_TYPE":"U","INCLINATION":"53.0550","MEAN_ELEMENT_THEORY":"SGP4","COUNTRY_CODE":"US","BSTAR":"0.00038627000000","NORAD_CAT_ID":"47792","OBJECT_ID":"2021-018F","FILE":"3383778","OBJECT_TYPE":"PAYLOAD","PERIOD":"95.591"},{"TLE_LINE2":"2 47793  53.0565 206.9474 0001669  58.3125 301.8027 15.06422504 60134","LAUNCH_DATE":"2021-03-11","TLE_LINE1":"1 47793U 21018G   22091.71449556  .00004460  00000-0  31791-3 0  9995","MEAN_MOTION":"15.06422504","CENTER_NAME":"EARTH","TIME_SYSTEM":"UTC","CLASSIFICATION_TYPE":"U","MEAN_ANOMALY":"301.8027","SEMIMAJOR_AXIS":"6925.280","COUNTRY_CODE":"US","BSTAR":"0.00031791000000","MEAN_ELEMENT_THEORY":"SGP4","INCLINATION":"53.0565","PERIOD":"95.591","OBJECT_TYPE":"PAYLOAD","FILE":"3383778","OBJECT_ID":"2021-018G","NORAD_CAT_ID":"47793","RCS_SIZE":"LARGE","ELEMENT_SET_NO":"999","DECAY_DATE":null,"REF_FRAME":"TEME","APOAPSIS":"548.300","MEAN_MOTION_DDOT":"0.0000000000000","SITE":"AFETR","OBJECT_NAME":"STARLINK-2338","GP_ID":"200264435","PERIAPSIS":"545.989","MEAN_MOTION_DOT":"0.00004460","EPOCH":"2022-04-01T17:08:52.416384","RA_OF_ASC_NODE":"206.9474","REV_AT_EPOCH":"6013","ECCENTRICITY":"0.00016690","EPHEMERIS_TYPE":"0","ARG_OF_PERICENTER":"58.3125"},{"SEMIMAJOR_AXIS":"6925.302","MEAN_ANOMALY":"308.1762","CLASSIFICATION_TYPE":"U","MEAN_MOTION":"15.06415274","CENTER_NAME":"EARTH","TIME_SYSTEM":"UTC","LAUNCH_DATE":"2021-03-11","TLE_LINE1":"1 47794U 21018H   22091.58549440  .00004857  00000-0  34460-3 0  9990","TLE_LINE2":"2 47794  53.0538 207.5291 0001761  51.9386 308.1762 15.06415274 60121","OBJECT_ID":"2021-018H","NORAD_CAT_ID":"47794","OBJECT_TYPE":"PAYLOAD","FILE":"3383353","PERIOD":"95.591","INCLINATION":"53.0538","MEAN_ELEMENT_THEORY":"SGP4","BSTAR":"0.00034460000000","COUNTRY_CODE":"US","APOAPSIS":"548.386","REF_FRAME":"TEME","DECAY_DATE":null,"RCS_SIZE":"LARGE","ELEMENT_SET_NO":"999","EPHEMERIS_TYPE":"0","ECCENTRICITY":"0.00017610","ARG_OF_PERICENTER":"51.9386","RA_OF_ASC_NODE":"207.5291","EPOCH":"2022-04-01T14:03:06.716160","REV_AT_EPOCH":"6012","PERIAPSIS":"545.947","MEAN_MOTION_DOT":"0.00004857","GP_ID":"200229408","OBJECT_NAME":"STARLINK-2341","SITE":"AFETR","MEAN_MOTION_DDOT":"0.0000000000000"},{"TIME_SYSTEM":"UTC","MEAN_MOTION":"15.06411689","CENTER_NAME":"EARTH","TLE_LINE1":"1 47795U 21018J   22091.57443468  .00004428  00000-0  31588-3 0  9995","LAUNCH_DATE":"2021-03-11","TLE_LINE2":"2 47795  53.0540 207.5762 0001539  74.2067 285.9091 15.06411689 60173","SEMIMAJOR_AXIS":"6925.313","MEAN_ANOMALY":"285.9091","CLASSIFICATION_TYPE":"U","INCLINATION":"53.0540","MEAN_ELEMENT_THEORY":"SGP4","COUNTRY_CODE":"US","BSTAR":"0.00031588000000","OBJECT_ID":"2021-018J","NORAD_CAT_ID":"47795","FILE":"3383353","OBJECT_TYPE":"PAYLOAD","PERIOD":"95.591","DECAY_DATE":null,"ELEMENT_SET_NO":"999","RCS_SIZE":"LARGE","APOAPSIS":"548.244","REF_FRAME":"TEME","GP_ID":"200230159","OBJECT_NAME":"STARLINK-2347","SITE":"AFETR","MEAN_MOTION_DDOT":"0.0000000000000","ARG_OF_PERICENTER":"74.2067","EPHEMERIS_TYPE":"0","ECCENTRICITY":"0.00015390","REV_AT_EPOCH":"6017","RA_OF_ASC_NODE":"207.5762","EPOCH":"2022-04-01T13:47:11.156352","PERIAPSIS":"546.112","MEAN_MOTION_DOT":"0.00004428"},{"APOAPSIS":"548.318","REF_FRAME":"TEME","ELEMENT_SET_NO":"999","RCS_SIZE":"LARGE","DECAY_DATE":null,"REV_AT_EPOCH":"6014","RA_OF_ASC_NODE":"206.9172","EPOCH":"2022-04-01T17:19:29.002080","ARG_OF_PERICENTER":"58.7667","EPHEMERIS_TYPE":"0","ECCENTRICITY":"0.00016820","PERIAPSIS":"545.989","MEAN_MOTION_DOT":"0.00002949","OBJECT_NAME":"STARLINK-2373","GP_ID":"200264193","MEAN_MOTION_DDOT":"0.0000000000000","SITE":"AFETR","SEMIMAJOR_AXIS":"6925.288","CLASSIFICATION_TYPE":"U","MEAN_ANOMALY":"301.3486","TLE_LINE1":"1 47796U 21018K   22091.72186345  .00002949  00000-0  21668-3 0  9995","LAUNCH_DATE":"2021-03-11","TIME_SYSTEM":"UTC","CENTER_NAME":"EARTH","MEAN_MOTION":"15.06419610","TLE_LINE2":"2 47796  53.0557 206.9172 0001682  58.7667 301.3486 15.06419610 60142","OBJECT_ID":"2021-018K","NORAD_CAT_ID":"47796","PERIOD":"95.591","FILE":"3383778","OBJECT_TYPE":"PAYLOAD","INCLINATION":"53.0557","BSTAR":"0.00021668000000","COUNTRY_CODE":"US","MEAN_ELEMENT_THEORY":"SGP4"},{"MEAN_ANOMALY":"302.4871","CLASSIFICATION_TYPE":"U","SEMIMAJOR_AXIS":"6925.307","TLE_LINE2":"2 47797  53.0543 231.7338 0001489  57.6262 302.4871 15.06413599 59791","MEAN_MOTION":"15.06413599","CENTER_NAME":"EARTH","TIME_SYSTEM":"UTC","LAUNCH_DATE":"2021-03-11","TLE_LINE1":"1 47797U 21018L   22091.75827082  .00005400  00000-0  38102-3 0  9995","OBJECT_TYPE":"PAYLOAD","FILE":"3383778","PERIOD":"95.591","NORAD_CAT_ID":"47797","OBJECT_ID":"2021-018L","MEAN_ELEMENT_THEORY":"SGP4","COUNTRY_CODE":"US","BSTAR":"0.00038102000000","INCLINATION":"53.0543","REF_FRAME":"TEME","APOAPSIS":"548.203","DECAY_DATE":null,"RCS_SIZE":"LARGE","ELEMENT_SET_NO":"999","MEAN_MOTION_DOT":"0.00005400","PERIAPSIS":"546.141","EPHEMERIS_TYPE":"0","ECCENTRICITY":"0.00014890","ARG_OF_PERICENTER":"57.6262","EPOCH":"2022-04-01T18:11:54.598848","RA_OF_ASC_NODE":"231.7338","REV_AT_EPOCH":"5979","SITE":"AFETR","MEAN_MOTION_DDOT":"0.0000000000000","OBJECT_NAME":"STARLINK-2377","GP_ID":"200263935"},{"NORAD_CAT_ID":"47798","OBJECT_ID":"2021-018M","FILE":"3383778","OBJECT_TYPE":"PAYLOAD","PERIOD":"95.591","INCLINATION":"53.0558","MEAN_ELEMENT_THEORY":"SGP4","BSTAR":"0.00038445000000","COUNTRY_CODE":"US","SEMIMAJOR_AXIS":"6925.282","MEAN_ANOMALY":"304.0746","CLASSIFICATION_TYPE":"U","TIME_SYSTEM":"UTC","MEAN_MOTION":"15.06421644","CENTER_NAME":"EARTH","TLE_LINE1":"1 47798U 21018M   22091.73292843  .00005453  00000-0  38445-3 0  9993","LAUNCH_DATE":"2021-03-11","TLE_LINE2":"2 47798  53.0558 206.8644 0001559  56.0391 304.0746 15.06421644 60145","ARG_OF_PERICENTER":"56.0391","ECCENTRICITY":"0.00015590","EPHEMERIS_TYPE":"0","REV_AT_EPOCH":"6014","RA_OF_ASC_NODE":"206.8644","EPOCH":"2022-04-01T17:35:25.016352","PERIAPSIS":"546.068","MEAN_MOTION_DOT":"0.00005453","GP_ID":"200262691","OBJECT_NAME":"STARLINK-2379","SITE":"AFETR","MEAN_MOTION_DDOT":"0.0000000000000","APOAPSIS":"548.227","REF_FRAME":"TEME","DECAY_DATE":null,"ELEMENT_SET_NO":"999","RCS_SIZE":"LARGE"}];
